{
  "type": "FeatureCollection",
  "features": [
    {
      "type": "Feature",
      "properties": {
        "norad_id": 36559,
        "name": "COSMOS 2251 DEB",
        "group": "cosmos-2251-debris",
        "lat": 5.615218910731646,
        "lon": -175.29046873752827,
        "alt_km": 1044.750274443847,
        "timestamp": "2025-12-14T18:52:55.900894+00:00",
        "meta_object_name": "COSMOS 2251 DEB",
        "meta_object_id": "1993-036BDV",
        "meta_epoch": "2025-12-13T02:29:27.239136",
        "meta_mean_motion": 13.95198935,
        "meta_eccentricity": 0.02600451,
        "meta_inclination": 74.1313,
        "meta_ra_of_asc_node": 9.1868,
        "meta_arg_of_pericenter": 41.9137,
        "meta_mean_anomaly": 320.158,
        "meta_ephemeris_type": 0,
        "meta_classification_type": "U",
        "meta_norad_cat_id": 36559,
        "meta_element_set_no": 999,
        "meta_rev_at_epoch": 81099,
        "meta_bstar": 0.0040329157,
        "meta_mean_motion_dot": 7.21e-05,
        "meta_mean_motion_ddot": 0,
        "tle_line1": "1 36559U 93036BDV 25347.10378749  .00007210  00000+0  40329-2 0  9998",
        "tle_line2": "2 36559  74.1313   9.1868 0260045  41.9137 320.1580 13.95198935810992"
      },
      "geometry": {
        "type": "Point",
        "coordinates": [
          -175.29046873752827,
          5.615218910731646
        ]
      }
    },
    {
      "type": "Feature",
      "properties": {
        "norad_id": 36614,
        "name": "COSMOS 2251 DEB",
        "group": "cosmos-2251-debris",
        "lat": 61.32753189819567,
        "lon": -40.92048690468353,
        "alt_km": 692.4919889170487,
        "timestamp": "2025-12-14T18:52:55.900904+00:00",
        "meta_object_name": "COSMOS 2251 DEB",
        "meta_object_id": "1993-036BEC",
        "meta_epoch": "2025-12-11T06:30:21.400992",
        "meta_mean_motion": 14.60233542,
        "meta_eccentricity": 0.00161993,
        "meta_inclination": 74.0218,
        "meta_ra_of_asc_node": 177.391,
        "meta_arg_of_pericenter": 247.2616,
        "meta_mean_anomaly": 112.6838,
        "meta_ephemeris_type": 0,
        "meta_classification_type": "U",
        "meta_norad_cat_id": 36614,
        "meta_element_set_no": 999,
        "meta_rev_at_epoch": 65591,
        "meta_bstar": 0.0024222077,
        "meta_mean_motion_dot": 0.00011696,
        "meta_mean_motion_ddot": 0,
        "tle_line1": "1 36614U 93036BEC 25345.27108103  .00011696  00000+0  24222-2 0  9998",
        "tle_line2": "2 36614  74.0218 177.3910 0016199 247.2616 112.6838 14.60233542655911"
      },
      "geometry": {
        "type": "Point",
        "coordinates": [
          -40.92048690468353,
          61.32753189819567
        ]
      }
    },
    {
      "type": "Feature",
      "properties": {
        "norad_id": 36622,
        "name": "COSMOS 2251 DEB",
        "group": "cosmos-2251-debris",
        "lat": -59.552379505431794,
        "lon": 112.27369031463147,
        "alt_km": 602.5945232366503,
        "timestamp": "2025-12-14T18:52:55.900914+00:00",
        "meta_object_name": "COSMOS 2251 DEB",
        "meta_object_id": "1993-036BEL",
        "meta_epoch": "2025-12-13T04:07:59.528928",
        "meta_mean_motion": 14.76203873,
        "meta_eccentricity": 0.00688136,
        "meta_inclination": 74.0135,
        "meta_ra_of_asc_node": 144.6283,
        "meta_arg_of_pericenter": 279.9599,
        "meta_mean_anomaly": 79.3813,
        "meta_ephemeris_type": 0,
        "meta_classification_type": "U",
        "meta_norad_cat_id": 36622,
        "meta_element_set_no": 999,
        "meta_rev_at_epoch": 66756,
        "meta_bstar": 0.0010024349,
        "meta_mean_motion_dot": 7.182e-05,
        "meta_mean_motion_ddot": 0,
        "tle_line1": "1 36622U 93036BEL 25347.17221677  .00007182  00000+0  10024-2 0  9990",
        "tle_line2": "2 36622  74.0135 144.6283 0068813 279.9599  79.3813 14.76203873667567"
      },
      "geometry": {
        "type": "Point",
        "coordinates": [
          112.27369031463147,
          -59.552379505431794
        ]
      }
    },
    {
      "type": "Feature",
      "properties": {
        "norad_id": 36632,
        "name": "COSMOS 2251 DEB",
        "group": "cosmos-2251-debris",
        "lat": -33.45189856643795,
        "lon": 119.48643087363631,
        "alt_km": 776.6767004427847,
        "timestamp": "2025-12-14T18:52:55.900924+00:00",
        "meta_object_name": "COSMOS 2251 DEB",
        "meta_object_id": "1993-036BEW",
        "meta_epoch": "2025-12-13T13:36:30.735360",
        "meta_mean_motion": 14.43181896,
        "meta_eccentricity": 0.00321339,
        "meta_inclination": 74.0018,
        "meta_ra_of_asc_node": 290.8293,
        "meta_arg_of_pericenter": 38.3996,
        "meta_mean_anomaly": 321.9438,
        "meta_ephemeris_type": 0,
        "meta_classification_type": "U",
        "meta_norad_cat_id": 36632,
        "meta_element_set_no": 999,
        "meta_rev_at_epoch": 65227,
        "meta_bstar": 0.0011350112,
        "meta_mean_motion_dot": 3.814e-05,
        "meta_mean_motion_ddot": 0,
        "tle_line1": "1 36632U 93036BEW 25347.56702240  .00003814  00000+0  11350-2 0  9995",
        "tle_line2": "2 36632  74.0018 290.8293 0032133  38.3996 321.9438 14.43181896652272"
      },
      "geometry": {
        "type": "Point",
        "coordinates": [
          119.48643087363631,
          -33.45189856643795
        ]
      }
    },
    {
      "type": "Feature",
      "properties": {
        "norad_id": 37084,
        "name": "COSMOS 2251 DEB",
        "group": "cosmos-2251-debris",
        "lat": -69.61987747018631,
        "lon": 106.83264079729507,
        "alt_km": 522.9072958633687,
        "timestamp": "2025-12-14T18:52:55.900935+00:00",
        "meta_object_name": "COSMOS 2251 DEB",
        "meta_object_id": "1993-036BFE",
        "meta_epoch": "2025-12-08T19:15:18.077184",
        "meta_mean_motion": 15.00891112,
        "meta_eccentricity": 0.00979748,
        "meta_inclination": 74.0259,
        "meta_ra_of_asc_node": 169.4673,
        "meta_arg_of_pericenter": 250.8811,
        "meta_mean_anomaly": 108.175,
        "meta_ephemeris_type": 0,
        "meta_classification_type": "U",
        "meta_norad_cat_id": 37084,
        "meta_element_set_no": 999,
        "meta_rev_at_epoch": 66208,
        "meta_bstar": 0.00080064992,
        "meta_mean_motion_dot": 0.00011267,
        "meta_mean_motion_ddot": 0,
        "tle_line1": "1 37084U 93036BFE 25342.80229256  .00011267  00000+0  80065-3 0  9991",
        "tle_line2": "2 37084  74.0259 169.4673 0097974 250.8811 108.1750 15.00891112662080"
      },
      "geometry": {
        "type": "Point",
        "coordinates": [
          106.83264079729507,
          -69.61987747018631
        ]
      }
    },
    {
      "type": "Feature",
      "properties": {
        "norad_id": 37085,
        "name": "COSMOS 2251 DEB",
        "group": "cosmos-2251-debris",
        "lat": -73.919284818157,
        "lon": 124.35400900218809,
        "alt_km": 458.0864864956802,
        "timestamp": "2025-12-14T18:52:55.900945+00:00",
        "meta_object_name": "COSMOS 2251 DEB",
        "meta_object_id": "1993-036BFF",
        "meta_epoch": "2025-12-13T09:00:31.829760",
        "meta_mean_motion": 15.41681088,
        "meta_eccentricity": 0.00213633,
        "meta_inclination": 73.9479,
        "meta_ra_of_asc_node": 214.6598,
        "meta_arg_of_pericenter": 52.9099,
        "meta_mean_anomaly": 307.4058,
        "meta_ephemeris_type": 0,
        "meta_classification_type": "U",
        "meta_norad_cat_id": 37085,
        "meta_element_set_no": 999,
        "meta_rev_at_epoch": 67147,
        "meta_bstar": 0.0025075056,
        "meta_mean_motion_dot": 0.00108114,
        "meta_mean_motion_ddot": 0,
        "tle_line1": "1 37085U 93036BFF 25347.37536840  .00108114  00000+0  25075-2 0  9996",
        "tle_line2": "2 37085  73.9479 214.6598 0021363  52.9099 307.4058 15.41681088671472"
      },
      "geometry": {
        "type": "Point",
        "coordinates": [
          124.35400900218809,
          -73.919284818157
        ]
      }
    },
    {
      "type": "Feature",
      "properties": {
        "norad_id": 37089,
        "name": "COSMOS 2251 DEB",
        "group": "cosmos-2251-debris",
        "lat": 59.24909995153358,
        "lon": -66.87539751277366,
        "alt_km": 763.8177843666381,
        "timestamp": "2025-12-14T18:52:55.900955+00:00",
        "meta_object_name": "COSMOS 2251 DEB",
        "meta_object_id": "1993-036BFK",
        "meta_epoch": "2025-12-13T04:19:45.135264",
        "meta_mean_motion": 14.52965066,
        "meta_eccentricity": 0.01351497,
        "meta_inclination": 74.0367,
        "meta_ra_of_asc_node": 144.9132,
        "meta_arg_of_pericenter": 245.0229,
        "meta_mean_anomaly": 113.6845,
        "meta_ephemeris_type": 0,
        "meta_classification_type": "U",
        "meta_norad_cat_id": 37089,
        "meta_element_set_no": 999,
        "meta_rev_at_epoch": 66116,
        "meta_bstar": 0.0037726946,
        "meta_mean_motion_dot": 0.00017561,
        "meta_mean_motion_ddot": 0,
        "tle_line1": "1 37089U 93036BFK 25347.18038351  .00017561  00000+0  37727-2 0  9995",
        "tle_line2": "2 37089  74.0367 144.9132 0135149 245.0229 113.6845 14.52965066661169"
      },
      "geometry": {
        "type": "Point",
        "coordinates": [
          -66.87539751277366,
          59.24909995153358
        ]
      }
    }
  ]
}